0 ARIANE 44L+ DEB
1 29026U 92021S   13282.05287855 -.00000044  00000-0  00000+0 0  6938
2 29026 003.8540 258.2963 6971392 000.4386 294.0775 02.23757285 71254
0 ARIANE 44L+ DEB
1 29026U 92021S   13283.02812505  .00000820  00000-0  10000-3 0  6949
2 29026 003.8337 257.7014 6966824 001.3414 359.7607 02.23753618 71276
0 ARIANE 44L+ DEB
1 29026U 92021S   13285.26258735 -.00000037  00000-0  00000+0 0  6942
2 29026 003.8451 257.2217 6973758 002.5750 359.5914 02.23755883 71335
0 ARIANE 44L+ DEB
1 29026U 92021S   13288.08108837 -.00000087  00000-0  00000+0 0  6958
2 29026 003.8297 256.2466 6973608 004.4736 109.9157 02.23770034 71394
0 ARIANE 44L+ DEB
1 29026U 92021S   13289.10172390 -.00000110  00000-0  00000+0 0  6965
2 29026 003.8257 255.8971 6973816 005.1581 212.0896 02.23771567 71414
0 ARIANE 44L+ DEB
1 29026U 92021S   13289.87233949 -.00000125  00000-0  00000+0 0  6974
2 29026 003.8225 255.6310 6974067 005.6787 112.8594 02.23772850 71436
0 ARIANE 44L+ DEB
1 29026U 92021S   13291.86041074 -.00000144  00000-0  00000+0 0  6984
2 29026 003.8141 254.9431 6974734 007.0207 274.3694 02.23775207 71471
0 ARIANE 44L+ DEB
1 29026U 92021S   13295.54005107 -.00000103  00000-0  00000+0 0  6996
2 29026 003.8067 253.6870 6976646 009.4972 358.6065 02.23767490 71563
